API VERSION: 1.2
API SOURCE: NASA/JPL Horizons API



*******************************************************************************
Ephemeris / API_USER Fri Apr  3 11:25:29 2026 Pasadena, USA      / Horizons
*******************************************************************************
Target body name: Jupiter (599)                   {source: jup365_merged}
Center body name: Sun (10)                        {source: jup365_merged}
Center-site name: BODY CENTER
*******************************************************************************
Start time      : A.D. 2025-May-19 04:59:00.0001 TDB
Stop  time      : A.D. 2025-May-21 04:59:00.0001 TDB
Step-size       : 60 minutes
*******************************************************************************
Center geodetic : 0.0, 0.0, 0.0                   {E-lon(deg),Lat(deg),Alt(km)}
Center cylindric: 0.0, 0.0, 0.0                   {E-lon(deg),Dxy(km),Dz(km)}
Center radii    : 695700.0, 695700.0, 695700.0 km {Equator_a, b, pole_c}
Output units    : AU-D
Calendar mode   : Mixed Julian/Gregorian
Output type     : GEOMETRIC cartesian states
Output format   : 3 (position, velocity, LT, range, range-rate)
Reference frame : Ecliptic of J2000.0
*******************************************************************************
            JDTDB,            Calendar Date (TDB),                      X,                      Y,                      Z,                     VX,                     VY,                     VZ,                     LT,                     RG,                     RR,
**************************************************************************************************************************************************************************************************************************************************************************
$$SOE
2460814.707638890, A.D. 2025-May-19 04:59:00.0001,  7.644360974935115E-03,  5.129775147255231E+00, -2.147991926538513E-02, -7.641013755675229E-03,  3.657997896293282E-04,  1.694250018843484E-04,  2.962740302730104E-02,  5.129825814253715E+00,  3.537002683298402E-04,
2460814.749305557, A.D. 2025-May-19 05:59:00.0001,  7.325985441927656E-03,  5.129790377853782E+00, -2.147285989058042E-02, -7.641010143550052E-03,  3.652689338941260E-04,  1.694250122205575E-04,  2.962748813729170E-02,  5.129840550591784E+00,  3.536439536287487E-04,
2460814.790972224, A.D. 2025-May-19 06:59:00.0001,  7.007610270196999E-03,  5.129805586342881E+00, -2.146580051204119E-02, -7.640996418286792E-03,  3.647387860645244E-04,  1.694251899403677E-04,  2.962757323378650E-02,  5.129855284593119E+00,  3.535883547150176E-04,
2460814.832638890, A.D. 2025-May-19 07:59:00.0001,  6.689235879161109E-03,  5.129820772783320E+00, -2.145874112172033E-02, -7.640972709701047E-03,  3.642108479148705E-04,  1.694255858571606E-04,  2.962765831713811E-02,  5.129870016318780E+00,  3.535349704670376E-04,
2460814.874305557, A.D. 2025-May-19 08:59:00.0001,  6.370862678348614E-03,  5.129835937298180E+00, -2.145168170953309E-02, -7.640939363222329E-03,  3.636866020207239E-04,  1.694262470260991E-04,  2.962774338805820E-02,  5.129884745891991E+00,  3.534852803604932E-04,
2460814.915972224, A.D. 2025-May-19 09:59:00.0001,  6.052491058383925E-03,  5.129851080071333E+00, -2.144462226352930E-02, -7.640896940406336E-03,  3.631674780832126E-04,  1.694272155715135E-04,  2.962782844760881E-02,  5.129899473496636E+00,  3.534407108775490E-04,
2460814.957638890, A.D. 2025-May-19 10:59:00.0001,  5.734121382078843E-03,  5.129866201344536E+00, -2.143756277012799E-02, -7.640846213206583E-03,  3.626548194039370E-04,  1.694285275970519E-04,  2.962791349718549E-02,  5.129914199374349E+00,  3.534026020732147E-04,
2460814.999305557, A.D. 2025-May-19 11:59:00.0001,  5.415753975897821E-03,  5.129881301413158E+00, -2.143050321438474E-02, -7.640788151789248E-03,  3.621498507026991E-04,  1.694302122228948E-04,  2.962799853849266E-02,  5.129928923820241E+00,  3.533721754880911E-04,
2460815.040972224, A.D. 2025-May-19 12:59:00.0001,  5.097389122058399E-03,  5.129896380620596E+00, -2.142344358030092E-02, -7.640723906346751E-03,  3.616536482212310E-04,  1.694322907801402E-04,  2.962808357351139E-02,  5.129943647177325E+00,  3.533505043468942E-04,
2460815.082638890, A.D. 2025-May-19 13:59:00.0001,  4.779027051501432E-03,  5.129911439351533E+00, -2.141638385116466E-02, -7.640654783669444E-03,  3.611671129040150E-04,  1.694347761840128E-04,  2.962816860446050E-02,  5.129958369829772E+00,  3.533384868300964E-04,
2460815.124305557, A.D. 2025-May-19 14:59:00.0001,  4.460667937931990E-03,  5.129926478024130E+00, -2.140932400990752E-02, -7.640582219335308E-03,  3.606909473493184E-04,  1.694376725022366E-04,  2.962825363375150E-02,  5.129973092195129E+00,  3.533368231084129E-04,
2460815.165972224, A.D. 2025-May-19 15:59:00.0001,  4.142311893094891E-03,  5.129941497081356E+00, -2.140226403948097E-02, -7.640507746385226E-03,  3.602256371473735E-04,  1.694409747309149E-04,  2.962833866393870E-02,  5.129987814715659E+00,  3.533459967541697E-04,
2460815.207638890, A.D. 2025-May-19 16:59:00.0001,  3.823958963414165E-03,  5.129956496981645E+00, -2.139520392323373E-02, -7.640432961332567E-03,  3.597714371453174E-04,  1.694446687864037E-04,  2.962842369766526E-02,  5.130002537849007E+00,  3.533662610667811E-04,
2460815.249305557, A.D. 2025-May-19 17:59:00.0001,  3.505609128089829E-03,  5.129971478189090E+00, -2.138814364528865E-02, -7.640359488345526E-03,  3.593283630853496E-04,  1.694487317172866E-04,  2.962850873760671E-02,  5.130017262058434E+00,  3.533976307569106E-04,
2460815.290972224, A.D. 2025-May-19 18:59:00.0001,  3.187262298709966E-03,  5.129986441163401E+00, -2.138108319089977E-02, -7.640288942451045E-03,  3.588961889458843E-04,  1.694531321354033E-04,  2.962859378641311E-02,  5.130031987802777E+00,  3.534398793176961E-04,
2460815.332638890, A.D. 2025-May-19 19:59:00.0001,  2.868918320401855E-03,  5.130001386349877E+00, -2.137402254679727E-02, -7.640222892637273E-03,  3.584744501734205E-04,  1.694578308589639E-04,  2.962867884665122E-02,  5.130046715526460E+00,  3.534925422698429E-04,
2460815.374305557, A.D. 2025-May-19 20:59:00.0001,  2.550576974506362E-03,  5.130016314169646E+00, -2.136696170148998E-02, -7.640162825765938E-03,  3.580624528282406E-04,  1.694627817543623E-04,  2.962876392074828E-02,  5.130061445649747E+00,  3.535549263032854E-04,
2460815.415972224, A.D. 2025-May-19 21:59:00.0001,  2.232237982722934E-03,  5.130031225010384E+00, -2.135990064553584E-02, -7.640110112231347E-03,  3.576592884862400E-04,  1.694679327567107E-04,  2.962884901093859E-02,  5.130076178559490E+00,  3.536261241578315E-04,
2460815.457638890, A.D. 2025-May-19 22:59:00.0001,  1.913901012632923E-03,  5.130046119217798E+00, -2.135283937176825E-02, -7.640065974303869E-03,  3.572638545510279E-04,  1.694732270428068E-04,  2.962893411921431E-02,  5.130090914600628E+00,  3.537050348975910E-04,
2460815.499305557, A.D. 2025-May-19 23:59:00.0001,  1.595565684470314E-03,  5.130060997088035E+00, -2.134577787546220E-02, -7.640031458060396E-03,  3.568748794451914E-04,  1.694786043246365E-04,  2.962901924728189E-02,  5.130105654068622E+00,  3.537903890493014E-04,
2460815.540972224, A.D. 2025-May-20 00:59:00.0001,  1.277231578972239E-03,  5.130075858861241E+00, -2.133871615445459E-02, -7.640007409724385E-03,  3.564909519780638E-04,  1.694840022270014E-04,  2.962910439652491E-02,  5.130120397203025E+00,  3.538807779036528E-04,
2460815.582638890, A.D. 2025-May-20 01:59:00.0001,  9.588982461118999E-04,  5.130090704716421E+00, -2.133165420919964E-02, -7.639994457111466E-03,  3.561105540398956E-04,  1.694893577097695E-04,  2.962918956797439E-02,  5.130135144182361E+00,  3.539746861317576E-04,
2460815.624305557, A.D. 2025-May-20 02:59:00.0001,  6.405652144882818E-04,  5.130105534767699E+00, -2.132459204276728E-02, -7.639992996706567E-03,  3.557320956582464E-04,  1.694946084938213E-04,  2.962927476228740E-02,  5.130149895120391E+00,  3.540705267552522E-04,
2460815.665972224, A.D. 2025-May-20 03:59:00.0001,  3.222320011309546E-04,  5.130120349062087E+00, -2.131752966078296E-02, -7.640003186693311E-03,  3.553539513791738E-04,  1.694996944501046E-04,  2.962935997973408E-02,  5.130164650063896E+00,  3.541666774355595E-04,
2460815.707638890, A.D. 2025-May-20 04:59:00.0001,  3.898121469652731E-06,  5.130135147578767E+00, -2.131046707130817E-02, -7.640024946029249E-03,  3.549744969084799E-04,  1.695045589133506E-04,  2.962944522019363E-02,  5.130179408991951E+00,  3.542615170207012E-04,
2460815.749305557, A.D. 2025-May-20 05:59:00.0001, -3.144369007817519E-04,  5.130149930229888E+00, -2.130340428467428E-02, -7.640057959426935E-03,  3.545921449692423E-04,  1.695091498858040E-04,  2.962953048315879E-02,  5.130194171816736E+00,  3.543534613090179E-04,
2460815.790972224, A.D. 2025-May-20 06:59:00.0001, -6.327735240660561E-04,  5.130164696862833E+00, -2.129634131326216E-02, -7.640101687878179E-03,  3.542053794003676E-04,  1.695134211015792E-04,  2.962961576774902E-02,  5.130208938385783E+00,  3.544409970575429E-04,
2460815.832638890, A.D. 2025-May-20 07:59:00.0001, -9.511121799678726E-04,  5.130179447263843E+00, -2.128927817124405E-02, -7.640155384164246E-03,  3.538127866331202E-04,  1.695173329286397E-04,  2.962970107273128E-02,  5.130223708485604E+00,  3.545227133747017E-04,
2460815.874305557, A.D. 2025-May-20 08:59:00.0001, -1.269453264936809E-03,  5.130194181162896E+00, -2.128221487429510E-02, -7.640218112643384E-03,  3.534130838314662E-04,  1.695208530925130E-04,  2.962978639654824E-02,  5.130238481846548E+00,  3.545973297855302E-04,
2460815.915972224, A.D. 2025-May-20 09:59:00.0001, -1.587797132910880E-03,  5.130208898239666E+00, -2.127515143926858E-02, -7.640288772510209E-03,  3.530051431577811E-04,  1.695239572132417E-04,  2.962987173735252E-02,  5.130253258148758E+00,  3.546637204328372E-04,
